CZ-2C R/B               
1 54039U 22132E   26038.93804300  .00040840  00000+0  51530-3 0  9999
2 54039  97.2964  41.4165 0018162 192.4445 167.6366 15.59278435185736
GSLV R/B                
1 54149U 22138AN  26038.90084438  .00003902  00000+0  33961-3 0  9992
2 54149  87.3862 176.3301 0019332 258.7387 101.1672 14.96544177179472
XRISM                   
1 57800U 23137A   26038.65592400  .00008135  00000+0  46756-3 0  9993
2 57800  31.0017 117.8608 0008060  99.0719 261.0832 15.11125713133246
ACS3                    
1 59588U 24077B   26038.89015250  .00017809  00000+0  14732-1 0  9996
2 59588  97.2230 346.7011 0045468 170.1895 190.0167 13.88366301 90068
SZ-21 MODULE            
1 66515U 25246C   26038.04255016  .00039980  00000+0  37769-3 0  9997
2 66515  41.4765  31.6776 0002982 280.6957  79.3548 15.66234853 13261
